{
  "type": "FeatureCollection",
  "features": [
    {
      "type": "Feature",
      "properties": {
        "norad_id": 35220,
        "name": "FENGYUN 1C DEB",
        "group": "fengyun-1c-debris",
        "lat": -25.84735320089217,
        "lon": -131.0563964694519,
        "alt_km": 833.5224228297366,
        "timestamp": "2025-12-09T09:46:47.934271+00:00",
        "meta_object_name": "FENGYUN 1C DEB",
        "meta_object_id": "1999-025DQC",
        "meta_epoch": "2025-12-09T03:44:46.125024",
        "meta_mean_motion": 14.22518775,
        "meta_eccentricity": 0.0043432,
        "meta_inclination": 99.0273,
        "meta_ra_of_asc_node": 53.1031,
        "meta_arg_of_pericenter": 317.8282,
        "meta_mean_anomaly": 41.9557,
        "meta_ephemeris_type": 0,
        "meta_classification_type": "U",
        "meta_norad_cat_id": 35220,
        "meta_element_set_no": 999,
        "meta_rev_at_epoch": 63132,
        "meta_bstar": 0.0018808,
        "meta_mean_motion_dot": 4.193e-05,
        "meta_mean_motion_ddot": 0,
        "tle_line1": "1 35220U 99025DQC 25343.15608941  .00004193  00000+0  18808-2 0  9991",
        "tle_line2": "2 35220  99.0273  53.1031 0043432 317.8282  41.9557 14.22518775631322"
      },
      "geometry": {
        "type": "Point",
        "coordinates": [
          -131.0563964694519,
          -25.84735320089217
        ]
      }
    },
    {
      "type": "Feature",
      "properties": {
        "norad_id": 35223,
        "name": "FENGYUN 1C DEB",
        "group": "fengyun-1c-debris",
        "lat": 76.03501848086925,
        "lon": -73.98848763332548,
        "alt_km": 611.9453154465273,
        "timestamp": "2025-12-09T09:46:47.934282+00:00",
        "meta_object_name": "FENGYUN 1C DEB",
        "meta_object_id": "1999-025DQF",
        "meta_epoch": "2025-12-07T21:56:42.228096",
        "meta_mean_motion": 14.88831664,
        "meta_eccentricity": 0.01290174,
        "meta_inclination": 98.972,
        "meta_ra_of_asc_node": 323.7649,
        "meta_arg_of_pericenter": 341.9743,
        "meta_mean_anomaly": 17.6916,
        "meta_ephemeris_type": 0,
        "meta_classification_type": "U",
        "meta_norad_cat_id": 35223,
        "meta_element_set_no": 999,
        "meta_rev_at_epoch": 93810,
        "meta_bstar": 0.0012358493,
        "meta_mean_motion_dot": 0.0001347,
        "meta_mean_motion_ddot": 0,
        "tle_line1": "1 35223U 99025DQF 25341.91437764  .00013470  00000+0  12358-2 0  9991",
        "tle_line2": "2 35223  98.9720 323.7649 0129017 341.9743  17.6916 14.88831664938107"
      },
      "geometry": {
        "type": "Point",
        "coordinates": [
          -73.98848763332548,
          76.03501848086925
        ]
      }
    },
    {
      "type": "Feature",
      "properties": {
        "norad_id": 35229,
        "name": "FENGYUN 1C DEB",
        "group": "fengyun-1c-debris",
        "lat": 9.677969981937753,
        "lon": -116.2148895239937,
        "alt_km": 674.1260467990242,
        "timestamp": "2025-12-09T09:46:47.934292+00:00",
        "meta_object_name": "FENGYUN 1C DEB",
        "meta_object_id": "1999-025DQM",
        "meta_epoch": "2025-12-08T23:08:00.019104",
        "meta_mean_motion": 14.60344709,
        "meta_eccentricity": 0.0047489,
        "meta_inclination": 98.4583,
        "meta_ra_of_asc_node": 61.8783,
        "meta_arg_of_pericenter": 226.2462,
        "meta_mean_anomaly": 133.4802,
        "meta_ephemeris_type": 0,
        "meta_classification_type": "U",
        "meta_norad_cat_id": 35229,
        "meta_element_set_no": 999,
        "meta_rev_at_epoch": 64451,
        "meta_bstar": 0.006925,
        "meta_mean_motion_dot": 0.00034127,
        "meta_mean_motion_ddot": 0,
        "tle_line1": "1 35229U 99025DQM 25342.96388911  .00034127  00000+0  69250-2 0  9997",
        "tle_line2": "2 35229  98.4583  61.8783 0047489 226.2462 133.4802 14.60344709644518"
      },
      "geometry": {
        "type": "Point",
        "coordinates": [
          -116.2148895239937,
          9.677969981937753
        ]
      }
    },
    {
      "type": "Feature",
      "properties": {
        "norad_id": 35231,
        "name": "FENGYUN 1C DEB",
        "group": "fengyun-1c-debris",
        "lat": -30.515387729781683,
        "lon": 31.84035364278579,
        "alt_km": 865.5717519404134,
        "timestamp": "2025-12-09T09:46:47.934303+00:00",
        "meta_object_name": "FENGYUN 1C DEB",
        "meta_object_id": "1999-025DQP",
        "meta_epoch": "2025-12-08T13:33:16.551360",
        "meta_mean_motion": 14.14527899,
        "meta_eccentricity": 0.0038029,
        "meta_inclination": 98.7211,
        "meta_ra_of_asc_node": 25.8267,
        "meta_arg_of_pericenter": 96.7145,
        "meta_mean_anomaly": 263.8358,
        "meta_ephemeris_type": 0,
        "meta_classification_type": "U",
        "meta_norad_cat_id": 35231,
        "meta_element_set_no": 999,
        "meta_rev_at_epoch": 91443,
        "meta_bstar": 4.8417e-05,
        "meta_mean_motion_dot": 5.1e-07,
        "meta_mean_motion_ddot": 0,
        "tle_line1": "1 35231U 99025DQP 25342.56477490  .00000051  00000+0  48417-4 0  9990",
        "tle_line2": "2 35231  98.7211  25.8267 0038029  96.7145 263.8358 14.14527899914434"
      },
      "geometry": {
        "type": "Point",
        "coordinates": [
          31.84035364278579,
          -30.515387729781683
        ]
      }
    },
    {
      "type": "Feature",
      "properties": {
        "norad_id": 35233,
        "name": "FENGYUN 1C DEB",
        "group": "fengyun-1c-debris",
        "lat": 75.24832778796151,
        "lon": 46.54823984864526,
        "alt_km": 774.044014420414,
        "timestamp": "2025-12-09T09:46:47.934313+00:00",
        "meta_object_name": "FENGYUN 1C DEB",
        "meta_object_id": "1999-025DQR",
        "meta_epoch": "2025-12-08T05:14:28.388832",
        "meta_mean_motion": 14.4177986,
        "meta_eccentricity": 0.00412391,
        "meta_inclination": 98.7708,
        "meta_ra_of_asc_node": 81.2245,
        "meta_arg_of_pericenter": 274.5532,
        "meta_mean_anomaly": 114.9681,
        "meta_ephemeris_type": 0,
        "meta_classification_type": "U",
        "meta_norad_cat_id": 35233,
        "meta_element_set_no": 999,
        "meta_rev_at_epoch": 91111,
        "meta_bstar": 0.002497777,
        "meta_mean_motion_dot": 8.202e-05,
        "meta_mean_motion_ddot": 0,
        "tle_line1": "1 35233U 99025DQR 25342.21838413  .00008202  00000+0  24978-2 0  9990",
        "tle_line2": "2 35233  98.7708  81.2245 0041239 274.5532 114.9681 14.41779860911116"
      },
      "geometry": {
        "type": "Point",
        "coordinates": [
          46.54823984864526,
          75.24832778796151
        ]
      }
    },
    {
      "type": "Feature",
      "properties": {
        "norad_id": 35234,
        "name": "FENGYUN 1C DEB",
        "group": "fengyun-1c-debris",
        "lat": -78.48227809426346,
        "lon": 55.517263599926,
        "alt_km": 612.5997726467513,
        "timestamp": "2025-12-09T09:46:47.934324+00:00",
        "meta_object_name": "FENGYUN 1C DEB",
        "meta_object_id": "1999-025DQS",
        "meta_epoch": "2025-12-08T19:24:00.899136",
        "meta_mean_motion": 14.65517814,
        "meta_eccentricity": 0.00998032,
        "meta_inclination": 98.0678,
        "meta_ra_of_asc_node": 10.8162,
        "meta_arg_of_pericenter": 275.0297,
        "meta_mean_anomaly": 83.952,
        "meta_ephemeris_type": 0,
        "meta_classification_type": "U",
        "meta_norad_cat_id": 35234,
        "meta_element_set_no": 999,
        "meta_rev_at_epoch": 94298,
        "meta_bstar": 0.00094774779,
        "meta_mean_motion_dot": 5.479e-05,
        "meta_mean_motion_ddot": 0,
        "tle_line1": "1 35234U 99025DQS 25342.80834374  .00005479  00000+0  94775-3 0  9994",
        "tle_line2": "2 35234  98.0678  10.8162 0099803 275.0297  83.9520 14.65517814942987"
      },
      "geometry": {
        "type": "Point",
        "coordinates": [
          55.517263599926,
          -78.48227809426346
        ]
      }
    },
    {
      "type": "Feature",
      "properties": {
        "norad_id": 35239,
        "name": "FENGYUN 1C DEB",
        "group": "fengyun-1c-debris",
        "lat": 18.446069737404457,
        "lon": 141.08876102548678,
        "alt_km": 832.932467759535,
        "timestamp": "2025-12-09T09:46:47.934335+00:00",
        "meta_object_name": "FENGYUN 1C DEB",
        "meta_object_id": "1999-025DQX",
        "meta_epoch": "2025-12-08T21:25:00.742080",
        "meta_mean_motion": 13.69204072,
        "meta_eccentricity": 0.0229828,
        "meta_inclination": 99.2631,
        "meta_ra_of_asc_node": 143.7136,
        "meta_arg_of_pericenter": 20.3789,
        "meta_mean_anomaly": 340.6348,
        "meta_ephemeris_type": 0,
        "meta_classification_type": "U",
        "meta_norad_cat_id": 35239,
        "meta_element_set_no": 999,
        "meta_rev_at_epoch": 58078,
        "meta_bstar": 0.0011463,
        "meta_mean_motion_dot": 1.153e-05,
        "meta_mean_motion_ddot": 0,
        "tle_line1": "1 35239U 99025DQX 25342.89236970  .00001153  00000+0  11463-2 0  9993",
        "tle_line2": "2 35239  99.2631 143.7136 0229828  20.3789 340.6348 13.69204072580789"
      },
      "geometry": {
        "type": "Point",
        "coordinates": [
          141.08876102548678,
          18.446069737404457
        ]
      }
    }
  ]
}